IRIDIUM 57              
1 25273U 98019B   24249.52863231  .00001219  00000+0  41823-3 0  9990
2 25273  86.3900 264.4551 0002220  90.4376 269.7075 14.35372323383945
IRIDIUM 63              
1 25286U 98021B   24249.31212746  .00001954  00000+0  66703-3 0  9993
2 25286  86.4030 201.4735 0002557  88.2086 271.9403 14.35957082382956
IRIDIUM 69              
1 25319U 98026A   24249.28338255  .00001792  00000+0  56089-3 0  9991
2 25319  86.3996 215.6181 0001007 157.2185 202.9059 14.40204869382046
IRIDIUM 71              
1 25320U 98026B   24249.89145602  .00001818  00000+0  56542-3 0  9995
2 25320  86.4005 210.1100 0001487  26.3717 333.7557 14.40520628382905
IRIDIUM 73              
1 25344U 98032C   24249.86711273  .00002720  00000+0  68563-3 0  9997
2 25344  86.4493 167.4702 0001965  95.0102 265.1328 14.50830414389624
IRIDIUM 82              
1 25467U 98051A   24249.49039468  .00031299  00000+0  14558-2 0  9999
2 25467  86.3691 247.5586 0115899 284.5587  74.2820 15.13931779380626
